OUFTI-1                 
1 41458U 16025C   22135.43238057  .00013259  00000+0  56903-3 0  9996
2 41458  98.1837 299.5408 0144121  17.8181 342.8027 15.13849197332581
E-ST@R-II               
1 41459U 16025D   22135.88845518  .00010437  00000+0  45838-3 0  9992
2 41459  98.1821 298.6518 0146964  20.3986 340.3051 15.12846773332571
AAUSAT 4                
1 41460U 16025E   22135.92951173  .00015460  00000+0  60955-3 0  9992
2 41460  98.1766 304.6111 0128127 357.1701   2.9164 15.18313995333001
AIST-2D (RS-48)         
1 41465U 16026B   22136.18268414  .00015873  00000+0  39074-3 0  9992
2 41465  97.0607  13.6186 0007959 243.0517 234.1016 15.40644100338565
NUSAT-1 (FRESCO)        
1 41557U 16033B   22135.84198060  .00013958  00000+0  42794-3 0  9998
2 41557  97.3857 233.5059 0012695 131.9546 344.3279 15.33809848332382
NUSAT-2 (BATATA)        
1 41558U 16033C   22135.78929168  .00013157  00000+0  37920-3 0  9999
2 41558  97.4051 238.9737 0011933 122.3561  43.5378 15.35785798332632
CARTOSAT-2C             
1 41599U 16040A   22135.87806581  .00003862  00000+0  18651-3 0  9997
2 41599  97.4897 195.7603 0012145 296.3201 181.2970 15.19196976326981
SATHYABAMASAT           
1 41600U 16040B   22135.89273954  .00023791  00000+0  77901-3 0  9990
2 41600  97.2233 189.1083 0010537 228.2324 131.8018 15.31612747327919
LAPAN-A3                
1 41603U 16040E   22135.93373935  .00001365  00000+0  65265-4 0  9992
2 41603  97.2094 174.3737 0011447 275.9751 205.1932 15.20567140327096
BIROS                   
1 41604U 16040F   22135.89717890  .00005335  00000+0  22238-3 0  9993
2 41604  97.2135 181.5248 0010192 243.5257 116.4936 15.24061238327503
SWAYAM                  
1 41607U 16040J   22135.69498364  .00022466  00000+0  75381-3 0  9997
2 41607  97.2184 187.2683 0010299 230.2833 129.7502 15.30838323327765
BEESAT-4                
1 41619U 16040W   22135.88676243  .00020051  00000+0  68828-3 0  9991
2 41619  97.2195 187.4012 0008796 221.8909 138.1660 15.30135859315745
3CAT-2                  
1 41732U 16051B   22135.78941701  .00012073  00000+0  38288-3 0  9994
2 41732  97.3811  58.9269 0012987  55.3399   6.9441 15.32762225320327
PRATHAM                 
1 41783U 16059A   22135.87946061  .00000568  00000+0  11815-3 0  9995
2 41783  97.9162 178.7341 0031962 277.0013  82.7555 14.63323543300864
ALSAT 1N                
1 41789U 16059G   22135.76368580  .00000486  00000+0  99668-4 0  9995
2 41789  97.9196 183.1154 0026743 259.8771  99.9416 14.64645044301084
LISHUI 1-01             
1 41845U 16066E   22136.22753308  .00047179  00000+0  50597-2 0  9990
2 41845  98.7323 264.8354 0232765 170.1670 260.1983 14.70613016292084
CARTOSAT-2D             
1 41948U 17008A   22135.89035993  .00003766  00000+0  18177-3 0  9999
2 41948  97.4676 195.9172 0007648  87.4353 272.7805 15.19258700290859
NAYIF-1 (EO-88)         
1 42017U 17008BX  22135.75615097  .00023802  00000+0  73565-3 0  9996
2 42017  97.2710 202.3644 0004699  23.5977 336.5480 15.33506313292062
ZHUHAI-1 02 (CAS-4B)    
1 42759U 17034B   22135.55133623  .00002709  00000+0  16944-3 0  9997
2 42759  43.0167 154.0230 0007638  75.6343  65.1415 15.11637447271378
ZHUHAI-1 01 (CAS-4A)    
1 42761U 17034D   22135.52120865  .00002871  00000+0  17835-3 0  9991
2 42761  43.0165 152.9993 0007938  78.3325  52.4819 15.11730230271376
UCLSAT                  
1 42765U 17036A   22135.87199416  .00018274  00000+0  65091-3 0  9994
2 42765  97.2004 179.5673 0011456  84.9900 275.2647 15.28920733272872
NIUSAT                  
1 42766U 17036B   22135.61094650  .00013499  00000+0  52974-3 0  9991
2 42766  97.2045 174.6123 0015722  86.0233 274.2802 15.25727781271793
CARTOSAT-2E             
1 42767U 17036C   22135.79736250  .00003756  00000+0  18128-3 0  9998
2 42767  97.4567 196.7196 0008835 128.7668 341.4106 15.19257587271400
LITUANICASAT-2          
1 42768U 17036D   22135.86872706  .00036124  00000+0  11001-2 0  9991
2 42768  97.2087 181.9580 0012375  72.6803 287.5792 15.33824907272258
AALTO-1                 
1 42775U 17036L   22135.89667329  .00010556  00000+0  42267-3 0  9995
2 42775  97.2001 174.8632 0014543  84.3698 275.9198 15.25132366271816
URSA MAIOR              
1 42776U 17036M   22135.82332477  .00011443  00000+0  45118-3 0  9996
2 42776  97.2015 175.4890 0014236  83.9733 276.3128 15.25631724271831
COMPASS 2               
1 42777U 17036N   22135.63903077  .00025860  00000+0  85419-3 0  9992
2 42777  97.2074 181.2488 0011439  76.1265 284.1249 15.31304133272123
MAX VALIER SAT          
1 42778U 17036P   22135.68385582  .00012829  00000+0  49432-3 0  9999
2 42778  97.2083 177.9171 0013023  85.9933 274.2794 15.26385700271909
PEGASUS                 
1 42784U 17036V   22135.64470608  .00015888  00000+0  58031-3 0  9999
2 42784  97.2019 178.6495 0012253  87.6926 272.5717 15.28117806272007
NUDTSAT                 
1 42787U 17036Y   22136.19871223  .00026541  00000+0  84881-3 0  9991
2 42787  97.2056 183.0485 0010515  78.8082 351.9314 15.32348590272156
SUCHAI                  
1 42788U 17036Z   22135.61149842  .00020651  00000+0  71794-3 0  9998
2 42788  97.2029 180.1620 0011459  84.3719 275.8828 15.29689983272168
SKCUBE                  
1 42789U 17036AA  22135.92023465  .00017966  00000+0  63748-3 0  9990
2 42789  97.2023 179.9645 0011553  84.3630 275.8928 15.29049719272105
VZLUSAT-1               
1 42790U 17036AB  22135.92963076  .00027838  00000+0  89334-3 0  9991
2 42790  97.2052 182.7602 0010184  79.5107 280.7283 15.32231876272265
ROBUSTA-1B              
1 42792U 17036AD  22135.62450329  .00018510  00000+0  64771-3 0  9997
2 42792  97.2023 180.2163 0011096  85.2637 274.9870 15.29503042272108
D-SAT                   
1 42794U 17036AF  22135.89903650  .00002665  00000+0  22949-3 0  9993
2 42794  97.4522 143.0330 0123107 193.4398 166.3534 14.92464942266627
NORSAT 2                
1 42828U 17042D   22135.84935168  .00002720  00000+0  26834-3 0  9991
2 42828  97.4340 354.0227 0015530 110.8726 249.4159 14.92674198263304
TECHNOSAT               
1 42829U 17042E   22135.55271118  .00001906  00000+0  19386-3 0  9997
2 42829  97.4249 351.6066 0015442 114.7736 245.5092 14.91769837263186
2017-042F               
1 42830U 17042F   22135.86403127  .00007274  00000+0  67500-3 0  9995
2 42830  97.4387 356.0769 0015001 104.2549 256.0339 14.94614854263415
FLYING LAPTOP           
1 42831U 17042G   22135.79599806  .00000706  00000+0  75141-4 0  9992
2 42831  97.4274 352.1492 0015223 114.1485 246.1339 14.91706754263223
CORVUS BC2              
1 42846U 17042X   22135.84046873  .00001789  00000+0  17785-3 0  9996
2 42846  97.4271 354.9904 0011074 103.8310 256.4143 14.92798359263417
CORVUS BC1              
1 42847U 17042Y   22135.92337128  .00001604  00000+0  15961-3 0  9992
2 42847  97.4274 355.3684 0010720 102.5861 257.6558 14.92904416263433
SIMPL                   
1 42983U 98067NF  22135.89717267  .00138398  00000+0  45427-3 0  9992
2 42983  51.6320 353.7338 0004074 187.6969 172.3974 15.89613172259741
CZ-4C R/B               
1 43012U 17072C   22135.84317086  .00000514  00000+0  11515-3 0  9992
2 43012  98.7002 170.5510 0128254  57.5412 303.8110 14.56324071239118
RADFXSAT (FOX-1B)       
1 43017U 17073E   22135.94772924  .00005141  00000+0  39219-3 0  9997
2 43017  97.6789  31.4653 0247925 294.4783  63.0756 14.81192879242309
EAGLESAT 1              
1 43018U 17073F   22135.66867800  .00008969  00000+0  65855-3 0  9991
2 43018  97.6819  32.8471 0240996 289.7348  67.8019 14.83283845242234
INS-1C                  
1 43116U 18004F   22135.73911259  .00017220  00000+0  60967-3 0  9990
2 43116  97.3773 212.0086 0009641 109.7358 250.4923 15.29153755241336
FLOCK 3P'-3             
1 43119U 18004J   22135.92905601  .00008165  00000+0  31249-3 0  9997
2 43119  97.3762 210.3666 0011010 116.6638 243.5730 15.26765329241256
FLOCK 3P'-2             
1 43120U 18004K   22135.92619145  .00009088  00000+0  35263-3 0  9999
2 43120  97.3769 209.9978 0010749 118.5311 241.7011 15.26277006241221
FLOCK 3P'-1             
1 43121U 18004L   22135.77541016  .00038172  00000+0  11283-2 0  9995
2 43121  97.3783 214.2495 0008639 107.3176 252.9013 15.34797968241422
FLOCK 3P'-4             
1 43122U 18004M   22135.71608344  .00008833  00000+0  34275-3 0  9996
2 43122  97.3777 209.9553 0010740 120.9714 239.2582 15.26286522241190
MICROMAS-2A             
1 43131U 18004W   22135.77031384  .00034977  00000+0  10401-2 0  9998
2 43131  97.3768 215.0041 0008055 110.8773 249.3334 15.34631399241562
PICSAT                  
1 43132U 18004X   22135.74916949  .00020184  00000+0  68556-3 0  9995
2 43132  97.3733 212.3236 0009407 115.0911 245.1307 15.30475278241409
CNUSAIL-1               
1 43133U 18004Y   22135.76042194  .00014277  00000+0  52417-3 0  9995
2 43133  97.3691 210.4738 0009985 117.2529 242.9729 15.28000473241309
2018-004Z               
1 43134U 18004Z   22135.72536398  .00017259  00000+0  60645-3 0  9991
2 43134  97.3716 211.6458 0009583 115.8949 244.3280 15.29401033241366
FOX-1D (AO-92)          
1 43137U 18004AC  22135.76793642  .00015360  00000+0  55192-3 0  9997
2 43137  97.3697 211.2310 0009403 116.5178 243.7027 15.28696748241352
STEP CUBE LAB           
1 43138U 18004AD  22135.78756583  .00028238  00000+0  88373-3 0  9998
2 43138  97.3767 214.4988 0008449 113.3944 246.8188 15.33050443241536
XIAOXIANG-2             
1 43155U 18008A   22135.87864104  .00006856  00000+0  37127-3 0  9993
2 43155  97.3550 195.3287 0014718 255.0788 220.9287 15.14840297238341
ZHOU ENLAI              
1 43156U 18008B   22135.88880913  .00007601  00000+0  41447-3 0  9990
2 43156  97.3597 195.2055 0012012 256.1489 218.6856 15.14590906238277
QUANTUTONG 1            
1 43158U 18008D   22135.92751994  .00006027  00000+0  33835-3 0  9996
2 43158  97.3544 193.2857 0011148 254.8972 279.7314 15.13644056238182
